*******************************************************************************
Ephemeris / WWW_USER Mon Mar 24 09:24:39 2025 Pasadena, USA      / Horizons    
*******************************************************************************
Target body name: (2017 UW51)                     {source: JPL#9}
Center body name: Earth (399)                     {source: DE441}
Center-site name: Mauna Kea
*******************************************************************************
Start time      : A.D. 2018-Oct-15 04:08:00.0000 UT      
Stop  time      : A.D. 2018-Oct-15 16:07:00.0000 UT      
Step-size       : 1 minutes
*******************************************************************************
Target pole/equ : undefined
Target radii    : undefined                                                    
Center geodetic : 204.5278, 19.8260847, 4.21024   {E-lon(deg),Lat(deg),Alt(km)}
Center cylindric: 204.5278, 6006.35451, 2151.0229 {E-lon(deg),Dxy(km),Dz(km)}
Center pole/equ : ITRF93                          {East-longitude positive}
Center radii    : 6378.137, 6378.137, 6356.752 km {Equator_a, b, pole_c}       
Target primary  : Sun
Vis. interferer : MOON (R_eq= 1737.400) km        {source: DE441}
Rel. light bend : Sun                             {source: DE441}
Rel. lght bnd GM: 1.3271E+11 km^3/s^2                                          
Small-body perts: Yes                             {source: SB441-N16}
Atmos refraction: NO (AIRLESS)
RA format       : HMS
Time format     : CAL 
Calendar mode   : Mixed Julian/Gregorian
RTS-only print  : NO       
EOP file        : eop.250321.p250617                                           
EOP coverage    : DATA-BASED 1962-JAN-20 TO 2025-MAR-21. PREDICTS-> 2025-JUN-16
Units conversion: 1 au= 149597870.700 km, c= 299792.458 km/s, 1 day= 86400.0 s 
Table cut-offs 1: Elevation (-90.0deg=NO ),Airmass (>38.000=NO), Daylight (YES)
Table cut-offs 2: Solar elongation (  0.0,180.0=NO ),Local Hour Angle( 0.0=NO )
Table cut-offs 3: RA/DEC angular rate (     0.0=NO )                           
*******************************************************************************
Initial IAU76/J2000 heliocentric ecliptic osculating elements (au, days, deg.):
  EPOCH=  2458075.5 ! 2017-Nov-18.00 (TDB)         Residual RMS= .20188        
   EC= .977323227404683    QR= 3.132710376610715   TP= 2458155.1551369466      
   OM= 241.7154477774366   W=  216.6888678209022   IN= 144.2025603349357       
  Equivalent ICRF heliocentric cartesian coordinates (au, au/d):
   X= 2.139353138138251E+00  Y= 2.375029509283225E+00  Z= 4.232007070438896E-01
  VX= 5.707101564767909E-03 VY=-6.350221743649190E-03 VZ=-1.041670648532765E-02
Asteroid physical parameters (km, seconds, rotational period in hours):        
   GM= n.a.                RAD= n.a.               ROTPER= n.a.                
   H= 15.3                 G= .150                 B-V= n.a.                   
                           ALBEDO= n.a.            STYP= n.a.                  
*******************************************************************************
 Date__(UT)__HR:MN     R.A._________(ICRF)_________DEC
******************************************************
$$SOE
 2018-Oct-15 10:17     22 23 29.481956 -54 31 08.84632
 2018-Oct-15 10:18     22 23 29.388490 -54 31 08.68074
 2018-Oct-15 10:19     22 23 29.295029 -54 31 08.51513
 2018-Oct-15 10:20     22 23 29.201575 -54 31 08.34949
 2018-Oct-15 10:21     22 23 29.108125 -54 31 08.18381
 2018-Oct-15 10:22     22 23 29.014681 -54 31 08.01810
 2018-Oct-15 10:23     22 23 28.921242 -54 31 07.85235
 2018-Oct-15 10:24     22 23 28.827809 -54 31 07.68657
 2018-Oct-15 10:25     22 23 28.734381 -54 31 07.52076
 2018-Oct-15 10:26     22 23 28.640959 -54 31 07.35492
 2018-Oct-15 10:27     22 23 28.547542 -54 31 07.18904
 2018-Oct-15 10:28     22 23 28.454131 -54 31 07.02313
 2018-Oct-15 10:29     22 23 28.360725 -54 31 06.85719
 2018-Oct-15 10:30     22 23 28.267325 -54 31 06.69121
 2018-Oct-15 10:31     22 23 28.173930 -54 31 06.52520
 2018-Oct-15 10:32     22 23 28.080541 -54 31 06.35916
 2018-Oct-15 10:33     22 23 27.987158 -54 31 06.19309
 2018-Oct-15 10:34     22 23 27.893780 -54 31 06.02699
 2018-Oct-15 10:35     22 23 27.800408 -54 31 05.86085
 2018-Oct-15 10:36     22 23 27.707041 -54 31 05.69469
 2018-Oct-15 10:37     22 23 27.613680 -54 31 05.52849
 2018-Oct-15 10:38     22 23 27.520325 -54 31 05.36226
 2018-Oct-15 10:39     22 23 27.426975 -54 31 05.19600
 2018-Oct-15 10:40     22 23 27.333632 -54 31 05.02971
 2018-Oct-15 10:41     22 23 27.240293 -54 31 04.86338
 2018-Oct-15 10:42     22 23 27.146961 -54 31 04.69703
 2018-Oct-15 10:43     22 23 27.053634 -54 31 04.53064
 2018-Oct-15 10:44     22 23 26.960313 -54 31 04.36423
 2018-Oct-15 10:45     22 23 26.866998 -54 31 04.19778
 2018-Oct-15 10:46     22 23 26.773688 -54 31 04.03131
 2018-Oct-15 10:47     22 23 26.680385 -54 31 03.86480
 2018-Oct-15 10:48     22 23 26.587087 -54 31 03.69826
 2018-Oct-15 10:49     22 23 26.493795 -54 31 03.53170
 2018-Oct-15 10:50     22 23 26.400508 -54 31 03.36510
 2018-Oct-15 10:51     22 23 26.307228 -54 31 03.19847
 2018-Oct-15 10:52     22 23 26.213953 -54 31 03.03182
 2018-Oct-15 10:53     22 23 26.120684 -54 31 02.86513
 2018-Oct-15 10:54     22 23 26.027422 -54 31 02.69842
 2018-Oct-15 10:55     22 23 25.934165 -54 31 02.53167
 2018-Oct-15 10:56     22 23 25.840914 -54 31 02.36490
 2018-Oct-15 10:57     22 23 25.747668 -54 31 02.19810
 2018-Oct-15 10:58     22 23 25.654429 -54 31 02.03127
 2018-Oct-15 10:59     22 23 25.561196 -54 31 01.86441
 2018-Oct-15 11:00     22 23 25.467969 -54 31 01.69752
 2018-Oct-15 11:01     22 23 25.374747 -54 31 01.53060
 2018-Oct-15 11:02     22 23 25.281532 -54 31 01.36366
 2018-Oct-15 11:03     22 23 25.188322 -54 31 01.19668
 2018-Oct-15 11:04     22 23 25.095119 -54 31 01.02968
 2018-Oct-15 11:05     22 23 25.001922 -54 31 00.86265
 2018-Oct-15 11:06     22 23 24.908730 -54 31 00.69560
 2018-Oct-15 11:07     22 23 24.815545 -54 31 00.52851
 2018-Oct-15 11:08     22 23 24.722366 -54 31 00.36140
 2018-Oct-15 11:09     22 23 24.629192 -54 31 00.19426
 2018-Oct-15 11:10     22 23 24.536025 -54 31 00.02710
 2018-Oct-15 11:11     22 23 24.442864 -54 30 59.85991
 2018-Oct-15 11:12     22 23 24.349709 -54 30 59.69269
 2018-Oct-15 11:13     22 23 24.256560 -54 30 59.52544
 2018-Oct-15 11:14     22 23 24.163418 -54 30 59.35817
 2018-Oct-15 11:15     22 23 24.070281 -54 30 59.19087
 2018-Oct-15 11:16     22 23 23.977150 -54 30 59.02354
 2018-Oct-15 11:17     22 23 23.884026 -54 30 58.85619
 2018-Oct-15 11:18     22 23 23.790908 -54 30 58.68881
 2018-Oct-15 11:19     22 23 23.697796 -54 30 58.52141
 2018-Oct-15 11:20     22 23 23.604690 -54 30 58.35398
 2018-Oct-15 11:21     22 23 23.511590 -54 30 58.18653
 2018-Oct-15 11:22     22 23 23.418497 -54 30 58.01904
 2018-Oct-15 11:23     22 23 23.325410 -54 30 57.85154
 2018-Oct-15 11:24     22 23 23.232329 -54 30 57.68401
 2018-Oct-15 11:25     22 23 23.139254 -54 30 57.51645
 2018-Oct-15 11:26     22 23 23.046185 -54 30 57.34887
 2018-Oct-15 11:27     22 23 22.953123 -54 30 57.18127
 2018-Oct-15 11:28     22 23 22.860067 -54 30 57.01364
 2018-Oct-15 11:29     22 23 22.767017 -54 30 56.84598
 2018-Oct-15 11:30     22 23 22.673974 -54 30 56.67830
 2018-Oct-15 11:31     22 23 22.580937 -54 30 56.51060
 2018-Oct-15 11:32  s  22 23 22.487906 -54 30 56.34287
 2018-Oct-15 11:33     22 23 22.394881 -54 30 56.17512
 2018-Oct-15 11:34     22 23 22.301863 -54 30 56.00735
 2018-Oct-15 11:35     22 23 22.208851 -54 30 55.83955
 2018-Oct-15 11:36     22 23 22.115845 -54 30 55.67173
 2018-Oct-15 11:37     22 23 22.022846 -54 30 55.50388
 2018-Oct-15 11:38     22 23 21.929853 -54 30 55.33602
 2018-Oct-15 11:39     22 23 21.836867 -54 30 55.16812
 2018-Oct-15 11:40     22 23 21.743887 -54 30 55.00021
 2018-Oct-15 11:41     22 23 21.650913 -54 30 54.83227
 2018-Oct-15 11:42     22 23 21.557945 -54 30 54.66432
 2018-Oct-15 11:43     22 23 21.464984 -54 30 54.49633
 2018-Oct-15 11:44     22 23 21.372030 -54 30 54.32833
 2018-Oct-15 11:45     22 23 21.279082 -54 30 54.16031
 2018-Oct-15 11:46     22 23 21.186140 -54 30 53.99226
 2018-Oct-15 11:47     22 23 21.093205 -54 30 53.82419
 2018-Oct-15 11:48     22 23 21.000276 -54 30 53.65610
 2018-Oct-15 11:49     22 23 20.907353 -54 30 53.48799
 2018-Oct-15 11:50     22 23 20.814437 -54 30 53.31985
 2018-Oct-15 11:51     22 23 20.721528 -54 30 53.15170
 2018-Oct-15 11:52     22 23 20.628625 -54 30 52.98352
 2018-Oct-15 11:53     22 23 20.535728 -54 30 52.81533
 2018-Oct-15 11:54     22 23 20.442838 -54 30 52.64711
 2018-Oct-15 11:55     22 23 20.349955 -54 30 52.47887
 2018-Oct-15 11:56     22 23 20.257078 -54 30 52.31061
 2018-Oct-15 11:57     22 23 20.164207 -54 30 52.14233
 2018-Oct-15 11:58     22 23 20.071343 -54 30 51.97404
 2018-Oct-15 11:59     22 23 19.978486 -54 30 51.80572
 2018-Oct-15 12:00     22 23 19.885635 -54 30 51.63738
 2018-Oct-15 12:01     22 23 19.792790 -54 30 51.46902
 2018-Oct-15 12:02     22 23 19.699952 -54 30 51.30064
 2018-Oct-15 12:03     22 23 19.607121 -54 30 51.13225
 2018-Oct-15 12:04     22 23 19.514296 -54 30 50.96383
 2018-Oct-15 12:05     22 23 19.421478 -54 30 50.79540
 2018-Oct-15 12:06     22 23 19.328666 -54 30 50.62694
 2018-Oct-15 12:07     22 23 19.235861 -54 30 50.45847
 2018-Oct-15 12:08     22 23 19.143063 -54 30 50.28998
 2018-Oct-15 12:09     22 23 19.050271 -54 30 50.12147
 2018-Oct-15 12:10     22 23 18.957485 -54 30 49.95294
 2018-Oct-15 12:11     22 23 18.864707 -54 30 49.78440
 2018-Oct-15 12:12     22 23 18.771935 -54 30 49.61583
 2018-Oct-15 12:13     22 23 18.679169 -54 30 49.44725
 2018-Oct-15 12:14     22 23 18.586410 -54 30 49.27865
 2018-Oct-15 12:15     22 23 18.493658 -54 30 49.11004
 2018-Oct-15 12:16     22 23 18.400912 -54 30 48.94140
 2018-Oct-15 12:17     22 23 18.308173 -54 30 48.77275
 2018-Oct-15 12:18     22 23 18.215441 -54 30 48.60409
 2018-Oct-15 12:19     22 23 18.122715 -54 30 48.43540
